{
  "type": "FeatureCollection",
  "features": [
    {
      "type": "Feature",
      "properties": {
        "norad_id": 41556,
        "name": "ZIYUAN 3-2 (ZY 3-2)",
        "group": "resource",
        "lat": 60.433270789505116,
        "lon": -104.73939852067163,
        "alt_km": 500.4772587142061,
        "timestamp": "2025-12-13T20:38:50.652181+00:00",
        "meta_object_name": "ZIYUAN 3-2 (ZY 3-2)",
        "meta_object_id": "2016-033A",
        "meta_epoch": "2025-12-13T07:29:58.723008",
        "meta_mean_motion": 15.21517889,
        "meta_eccentricity": 0.00125352,
        "meta_inclination": 97.4042,
        "meta_ra_of_asc_node": 61.4702,
        "meta_arg_of_pericenter": 246.767,
        "meta_mean_anomaly": 113.2246,
        "meta_ephemeris_type": 0,
        "meta_classification_type": "U",
        "meta_norad_cat_id": 41556,
        "meta_element_set_no": 999,
        "meta_rev_at_epoch": 52972,
        "meta_bstar": 0.00053048071,
        "meta_mean_motion_dot": 0.00011907,
        "meta_mean_motion_ddot": 0,
        "tle_line1": "1 41556U 16033A   25347.31248522  .00011907  00000+0  53048-3 0  9992",
        "tle_line2": "2 41556  97.4042  61.4702 0012535 246.7670 113.2246 15.21517889529728"
      },
      "geometry": {
        "type": "Point",
        "coordinates": [
          -104.73939852067163,
          60.433270789505116
        ]
      }
    },
    {
      "type": "Feature",
      "properties": {
        "norad_id": 41599,
        "name": "CARTOSAT-2C",
        "group": "resource",
        "lat": 53.04169445149299,
        "lon": 35.047748642102285,
        "alt_km": 495.63988008776414,
        "timestamp": "2025-12-13T20:38:50.652191+00:00",
        "meta_object_name": "CARTOSAT-2C",
        "meta_object_id": "2016-040A",
        "meta_epoch": "2025-12-13T07:46:00.780096",
        "meta_mean_motion": 15.19304092,
        "meta_eccentricity": 0.00107665,
        "meta_inclination": 97.4764,
        "meta_ra_of_asc_node": 44.5683,
        "meta_arg_of_pericenter": 63.1973,
        "meta_mean_anomaly": 297.0362,
        "meta_ephemeris_type": 0,
        "meta_classification_type": "U",
        "meta_norad_cat_id": 41599,
        "meta_element_set_no": 999,
        "meta_rev_at_epoch": 52549,
        "meta_bstar": 0.0003297272,
        "meta_mean_motion_dot": 6.903e-05,
        "meta_mean_motion_ddot": 0,
        "tle_line1": "1 41599U 16040A   25347.32362014  .00006903  00000+0  32973-3 0  9995",
        "tle_line2": "2 41599  97.4764  44.5683 0010766  63.1973 297.0362 15.19304092525494"
      },
      "geometry": {
        "type": "Point",
        "coordinates": [
          35.047748642102285,
          53.04169445149299
        ]
      }
    },
    {
      "type": "Feature",
      "properties": {
        "norad_id": 41601,
        "name": "SKYSAT-C1",
        "group": "resource",
        "lat": 17.246254158119363,
        "lon": -153.00847286333246,
        "alt_km": 470.0065801560995,
        "timestamp": "2025-12-13T20:38:50.652202+00:00",
        "meta_object_name": "SKYSAT-C1",
        "meta_object_id": "2016-040C",
        "meta_epoch": "2025-12-13T02:42:14.175648",
        "meta_mean_motion": 15.32601016,
        "meta_eccentricity": 0.00023168,
        "meta_inclination": 96.9831,
        "meta_ra_of_asc_node": 24.1052,
        "meta_arg_of_pericenter": 13.9913,
        "meta_mean_anomaly": 346.1393,
        "meta_ephemeris_type": 0,
        "meta_classification_type": "U",
        "meta_norad_cat_id": 41601,
        "meta_element_set_no": 999,
        "meta_rev_at_epoch": 52933,
        "meta_bstar": 0.00043617023,
        "meta_mean_motion_dot": 0.00013669,
        "meta_mean_motion_ddot": 0,
        "tle_line1": "1 41601U 16040C   25347.11266407  .00013669  00000+0  43617-3 0  9999",
        "tle_line2": "2 41601  96.9831  24.1052 0002316  13.9913 346.1393 15.32601016529338"
      },
      "geometry": {
        "type": "Point",
        "coordinates": [
          -153.00847286333246,
          17.246254158119363
        ]
      }
    },
    {
      "type": "Feature",
      "properties": {
        "norad_id": 41603,
        "name": "LAPAN-A3",
        "group": "resource",
        "lat": -57.3737331640053,
        "lon": -3.3267235911819495,
        "alt_km": 472.4849671869688,
        "timestamp": "2025-12-13T20:38:50.652213+00:00",
        "meta_object_name": "LAPAN-A3",
        "meta_object_id": "2016-040E",
        "meta_epoch": "2025-12-13T06:47:15.952128",
        "meta_mean_motion": 15.31559036,
        "meta_eccentricity": 0.00095606,
        "meta_inclination": 97.1432,
        "meta_ra_of_asc_node": 344.8193,
        "meta_arg_of_pericenter": 331.9221,
        "meta_mean_anomaly": 28.1505,
        "meta_ephemeris_type": 0,
        "meta_classification_type": "U",
        "meta_norad_cat_id": 41603,
        "meta_element_set_no": 999,
        "meta_rev_at_epoch": 52634,
        "meta_bstar": 0.00022252739,
        "meta_mean_motion_dot": 6.716e-05,
        "meta_mean_motion_ddot": 0,
        "tle_line1": "1 41603U 16040E   25347.28282352  .00006716  00000+0  22253-3 0  9994",
        "tle_line2": "2 41603  97.1432 344.8193 0009560 331.9221  28.1505 15.31559036526344"
      },
      "geometry": {
        "type": "Point",
        "coordinates": [
          -3.3267235911819495,
          -57.3737331640053
        ]
      }
    },
    {
      "type": "Feature",
      "properties": {
        "norad_id": 41604,
        "name": "BIROS",
        "group": "resource",
        "lat": 0.247015361809903,
        "lon": 19.307904480472047,
        "alt_km": 306.74820352648385,
        "timestamp": "2025-12-13T20:38:50.652223+00:00",
        "meta_object_name": "BIROS",
        "meta_object_id": "2016-040F",
        "meta_epoch": "2025-12-13T01:00:39.504096",
        "meta_mean_motion": 15.89878282,
        "meta_eccentricity": 0.00034365,
        "meta_inclination": 97.0687,
        "meta_ra_of_asc_node": 18.4869,
        "meta_arg_of_pericenter": 147.9634,
        "meta_mean_anomaly": 212.1849,
        "meta_ephemeris_type": 0,
        "meta_classification_type": "U",
        "meta_norad_cat_id": 41604,
        "meta_element_set_no": 999,
        "meta_rev_at_epoch": 52877,
        "meta_bstar": 0.00072930602,
        "meta_mean_motion_dot": 0.00214963,
        "meta_mean_motion_ddot": 1.8647686e-05,
        "tle_line1": "1 41604U 16040F   25347.04212389  .00214963  18648-4  72931-3 0  9997",
        "tle_line2": "2 41604  97.0687  18.4869 0003436 147.9634 212.1849 15.89878282528774"
      },
      "geometry": {
        "type": "Point",
        "coordinates": [
          19.307904480472047,
          0.247015361809903
        ]
      }
    },
    {
      "type": "Feature",
      "properties": {
        "norad_id": 41727,
        "name": "GAOFEN-3",
        "group": "resource",
        "lat": 76.59587081267604,
        "lon": -44.91362469087685,
        "alt_km": 743.0147459426189,
        "timestamp": "2025-12-13T20:38:50.652233+00:00",
        "meta_object_name": "GAOFEN-3",
        "meta_object_id": "2016-049A",
        "meta_epoch": "2025-12-13T06:57:34.362720",
        "meta_mean_motion": 14.42214113,
        "meta_eccentricity": 0.00014009,
        "meta_inclination": 98.4043,
        "meta_ra_of_asc_node": 352.8678,
        "meta_arg_of_pericenter": 60.7941,
        "meta_mean_anomaly": 299.3389,
        "meta_ephemeris_type": 0,
        "meta_classification_type": "U",
        "meta_norad_cat_id": 41727,
        "meta_element_set_no": 999,
        "meta_rev_at_epoch": 49185,
        "meta_bstar": 7.5702671e-05,
        "meta_mean_motion_dot": 2.06e-06,
        "meta_mean_motion_ddot": 0,
        "tle_line1": "1 41727U 16049A   25347.28998105  .00000206  00000+0  75703-4 0  9997",
        "tle_line2": "2 41727  98.4043 352.8678 0001400  60.7941 299.3389 14.42214113491855"
      },
      "geometry": {
        "type": "Point",
        "coordinates": [
          -44.91362469087685,
          76.59587081267604
        ]
      }
    },
    {
      "type": "Feature",
      "properties": {
        "norad_id": 41771,
        "name": "SKYSAT-C4",
        "group": "resource",
        "lat": 42.87597493864913,
        "lon": -160.514209064395,
        "alt_km": 434.78852239385105,
        "timestamp": "2025-12-13T20:38:50.652243+00:00",
        "meta_object_name": "SKYSAT-C4",
        "meta_object_id": "2016-058B",
        "meta_epoch": "2025-12-13T07:35:58.976448",
        "meta_mean_motion": 15.42275484,
        "meta_eccentricity": 0.00015873,
        "meta_inclination": 96.9383,
        "meta_ra_of_asc_node": 12.4762,
        "meta_arg_of_pericenter": 134.4118,
        "meta_mean_anomaly": 225.7261,
        "meta_ephemeris_type": 0,
        "meta_classification_type": "U",
        "meta_norad_cat_id": 41771,
        "meta_element_set_no": 999,
        "meta_rev_at_epoch": 51676,
        "meta_bstar": 0.00054615634,
        "meta_mean_motion_dot": 0.00023455,
        "meta_mean_motion_ddot": 0,
        "tle_line1": "1 41771U 16058B   25347.31665482  .00023455  00000+0  54616-3 0  9999",
        "tle_line2": "2 41771  96.9383  12.4762 0001587 134.4118 225.7261 15.42275484516767"
      },
      "geometry": {
        "type": "Point",
        "coordinates": [
          -160.514209064395,
          42.87597493864913
        ]
      }
    }
  ]
}